STARLINK-4327           
1 53079U 22077AN  22212.91667824  .00020300  00000+0  34215-3 0  9996
2 53079  97.6544  32.2818 0001675  80.9066  45.2059 15.51719619  1307
STARLINK-4330           
1 53080U 22077AP  22213.50001157  .00019228  00000+0  32407-3 0  9993
2 53080  97.6555  32.9063 0001660  59.7215  81.3052 15.51733023  3945
STARLINK-4326           
1 53081U 22077AQ  22213.50001157  .00018829  00000+0  31668-3 0  9998
2 53081  97.6553  32.9031 0001302  76.5539  67.4678 15.51796077  3945
STARLINK-4321           
1 53082U 22077AR  22213.50001157 -.00072120  00000+0 -12171-2 0  9992
2 53082  97.6569  32.9046 0001234  67.2737  76.2274 15.51830559  3944
STARLINK-4251           
1 53083U 22077AS  22213.16667824 -.00048946  00000+0 -81990-3 0  9999
2 53083  97.6585  32.5418 0001918  73.2358 289.3530 15.51936554  3895
STARLINK-4319           
1 53084U 22077AT  22213.50001157  .00018623  00000+0  31303-3 0  9999
2 53084  97.6560  32.9042 0001387  80.4058  64.4847 15.51816194  3949
STARLINK-4324           
1 53085U 22077AU  22212.91667824  .00051563  00000+0  86307-3 0  9997
2 53085  97.6555  32.2814 0001832  76.6018  53.8425 15.51718235  1301
STARLINK-4318           
1 53086U 22077AV  22213.50001157  .00019045  00000+0  32095-3 0  9999
2 53086  97.6547  32.9028 0001773  79.9483  66.2030 15.51737160  3943
STARLINK-4329           
1 53087U 22077AW  22213.50001157  .00019066  00000+0  32131-3 0  9994
2 53087  97.6557  32.9023 0001812  71.5901  76.8724 15.51736599  3949
STARLINK-4333           
1 53088U 22077AX  22213.50001157  .00019145  00000+0  32240-3 0  9994
2 53088  97.6556  32.9008 0001677  68.6315  79.1113 15.51756911  3945
FALCON 9 DEB            
1 53089U 22077AY  22212.77171026  .00116476  73220-5  36571-3 0  9992
2 53089  97.6726  32.8268 0008554 189.0557 171.0563 15.91409950  3290
FALCON 9 DEB            
1 53090U 22077AZ  22213.01634661  .00126461  82586-5  38199-3 0  9999
2 53090  97.6710  33.1172 0006236 179.5221 180.6059 15.92184335  3339
FALCON 9 DEB            
1 53091U 22077BA  22213.43880442  .00145840  10383-4  39897-3 0  9999
2 53091  97.6698  33.6274 0009830 170.7228 189.4230 15.94015142  3403
FALCON 9 DEB            
1 53092U 22077BB  22213.43519229  .00145498  10364-4  39418-3 0  9999
2 53092  97.6703  33.6310 0009710 156.1266 204.0460 15.94201779  3401
TIANLIAN 2-03           
1 53100U 22078A   22212.93313337  .00000077  00000+0  00000+0 0  9991
2 53100   2.9799 284.8099 0002409 190.9504 180.3182  1.00272527   357
CZ-3B R/B               
1 53101U 22078B   22212.82503167  .00042145  15588-5  12044-2 0  9991
2 53101  27.1633 168.2652 7234179 186.0829 154.2436  2.38415020   461
LARES-2                 
1 53105U 22080A   22211.27604202 -.00000001  00000+0  00000+0 0  9997
2 53105  70.1530  71.6221 0005667 280.0506  79.9708  6.38965197  1078
MTCUBE 2 (ROBUSTA 1F)   
1 53106U 22080B   22211.33861867 -.00000003  00000+0  00000+0 0  9999
2 53106  70.1533  71.5477 0009027 254.2468 105.7193  6.42558188  1077
ASTROBIOCUBESAT         
1 53107U 22080C   22211.19450141 -.00000003  00000+0  00000+0 0  9993
2 53107  70.1555  71.6181 0012697 247.0920 112.8387  6.42110762   968
TRISAT-R                
1 53108U 22080D   22211.19341506 -.00000003  00000+0  00000+0 0  9998
2 53108  70.1578  71.6157 0012783 257.5955 102.3275  6.42152352   979
GREENCUBE               
1 53109U 22080E   22212.58303217 -.00000003  00000+0  00000+0 0  9990
2 53109  70.1368  70.9194 0008982 239.3816 120.5973  6.42583713  1045
2022-080F               
1 53110U 22080F   22210.25109638 -.00000003  00000+0  00000+0 0  9995
2 53110  70.1414  71.9375 0090943  88.1365 272.9296  6.42506758   894
CELESTA                 
1 53111U 22080G   22209.16019017 -.00000003  00000+0  00000+0 0  9995
2 53111  70.1517  72.3224 0015664 220.2144 139.7964  6.42532870   816
2022-080H               
1 53112U 22080H   22207.29133216 -.00000003  00000+0  00000+0 0  9996
2 53112  70.1386  72.9501 0009345 259.2772 100.6820  6.42593043   708
DRAGON CRS-25           
1 53113U 22081A   22212.29811660  .00004885  00000+0  92944-4 0  9994
2 53113  51.6434 118.0876 0005224  68.4686   2.0223 15.50181984352023
SUPERVIEW NEO-2 O1      
1 53128U 22082A   22213.50163402  .00002227  00000+0  93012-4 0  9995
2 53128  97.3844 221.2646 0012385 201.6111 309.8678 15.24623303  2529
CZ-2C DEB               
1 53129U 22082B   22213.27029483  .00011415  00000+0  45281-3 0  9993
2 53129  97.3855 221.0520 0012388 209.4319 150.6103 15.25460166  2498
SUPERVIEW NEO-2 02      
1 53130U 22082C   22213.49315400  .00002301  00000+0  93744-4 0  9998
2 53130  97.3841 221.2756 0012382 217.9304 294.6608 15.25426180  2521
CZ-2C R/B               
1 53131U 22082D   22213.22263729  .00004701  00000+0  13179-3 0  9995
2 53131  97.3592 221.1559 0047712 315.4787  44.2613 15.35955338  2493
STARLINK-4063           
1 53132U 22083A   22212.91667824 -.00064612  00000+0 -45882-3 0  9991
2 53132  53.2177 335.9441 0001639  41.5504 234.5234 15.73232545  1302
STARLINK-4154           
1 53133U 22083B   22213.16667824 -.00009223  00000+0 -61332-4 0  9996
2 53133  53.2179 334.7140 0002845 306.7629 302.4655 15.73202409  2941
STARLINK-4150           
1 53134U 22083C   22213.16667824  .00064366  00000+0  46065-3 0  9999
2 53134  53.2183 334.7105 0001484  46.2385 204.7608 15.73142329  2947
STARLINK-4023           
1 53135U 22083D   22213.58334491  .00000375  00000+0  70896-5 0  9998
2 53135  53.2175 332.6519 0001553  38.9345  51.9857 15.73203275  3011
STARLINK-4152           
1 53136U 22083E   22213.16667824 -.00030574  00000+0 -21415-3 0  9999
2 53136  53.2180 334.7113 0001303  39.4261 210.9667 15.73207133  2941
STARLINK-4145           
1 53137U 22083F   22213.58334491 -.00065019  00000+0 -46178-3 0  9992
2 53137  53.2183 332.6509 0003264 309.9349 142.8429 15.73223897  3014
STARLINK-4141           
1 53138U 22083G   22213.58334491  .00002343  00000+0  21111-4 0  9993
2 53138  53.2171 332.1417 0001788  36.4007 303.2861 15.73201706  3015
STARLINK-4185           
1 53139U 22083H   22212.91667824  .00008828  00000+0  67171-4 0  9999
2 53139  53.2186 335.9451 0001708  34.2662 242.9680 15.73227925  2902
STARLINK-4170           
1 53140U 22083J   22212.91667824 -.00011063  00000+0 -74534-4 0  9999
2 53140  53.2179 335.9437 0001632  42.9976 233.6977 15.73189617  1304
STARLINK-4103           
1 53141U 22083K   22213.16667824  .00034238  00000+0  24769-3 0  9999
2 53141  53.2181 334.6999 0001418  39.7167 216.6856 15.73169192  2949
STARLINK-4101           
1 53142U 22083L   22213.16667824 -.00015759  00000+0 -10807-3 0  9997
2 53142  53.2182 334.7039 0003446 302.5352 312.0481 15.73187809  2947
STARLINK-4102           
1 53143U 22083M   22213.58334491 -.00079975  00000+0 -56992-3 0  9990
2 53143  53.2181 332.6392 0001549  33.9453  64.2123 15.73236471  3013
STARLINK-4100           
1 53144U 22083N   22213.58334491 -.00066217  00000+0 -47046-3 0  9996
2 53144  53.2184 332.6440 0001659 348.4273 107.9415 15.73230445  3011
STARLINK-4106           
1 53145U 22083P   22213.16667824 -.00006623  00000+0 -42852-4 0  9996
2 53145  53.2187 334.6978 0001570  49.4515 208.7275 15.73174538  2947
STARLINK-4099           
1 53146U 22083Q   22213.58334491 -.00061485  00000+0 -43599-3 0  9999
2 53146  53.2182 332.6421 0002441 318.1266 138.8270 15.73242574  3014
STARLINK-4094           
1 53147U 22083R   22213.16667824 -.00035376  00000+0 -24833-3 0  9993
2 53147  53.2181 334.6952 0001381  45.3336 213.4347 15.73234249  2940
STARLINK-4066           
1 53148U 22083S   22213.16667824  .00034454  00000+0  24932-3 0  9998
2 53148  53.2182 334.6976 0001368  45.9889 211.5979 15.73159672  2948
STARLINK-4021           
1 53149U 22083T   22213.16667824 -.00002472  00000+0 -13219-4 0  9993
2 53149  53.2178 334.6789 0001437  39.5495 226.9473 15.73173992  2945
STARLINK-4038           
1 53150U 22083U   22213.16667824 -.00004629  00000+0 -28567-4 0  9993
2 53150  53.2179 334.6931 0001494  47.4223 211.9243 15.73210307  2948
STARLINK-4040           
1 53151U 22083V   22213.58334491 -.00000162  00000+0  32701-5 0  9994
2 53151  53.2186 332.6329 0001657  48.8054  53.5311 15.73195676  3010
STARLINK-4045           
1 53152U 22083W   22213.16667824  .00063835  00000+0  45694-3 0  9996
2 53152  53.2188 334.6954 0001415  32.8626 227.0822 15.73141168  2942
STARLINK-4098           
1 53153U 22083X   22212.91667824 -.00090796  00000+0 -64719-3 0  9996
2 53153  53.2183 335.9292 0001676  41.5204 243.4277 15.73281981  1308
STARLINK-4077           
1 53154U 22083Y   22213.58334491 -.00086931  00000+0 -62035-3 0  9997
2 53154  53.2171 332.6292 0001402  40.4038  61.3236 15.73238495  3014
STARLINK-4088           
1 53155U 22083Z   22213.16667824  .00044262  00000+0  31881-3 0  9995
2 53155  53.2183 334.6861 0003219 303.8511 319.6895 15.73145629  2949
STARLINK-4087           
1 53156U 22083AA  22213.58334491 -.00065071  00000+0 -46164-3 0  9996
2 53156  53.2181 332.6275 0001607  31.0069  73.0743 15.73257810  3010
STARLINK-4093           
1 53157U 22083AB  22213.16667824  .00037081  00000+0  26743-3 0  9999
2 53157  53.2184 334.6845 0001481  43.7348 220.9611 15.73201759  2948
STARLINK-4054           
1 53158U 22083AC  22213.16667824  .00066292  00000+0  47385-3 0  9991
2 53158  53.2180 334.6878 0001254  33.8725 228.4542 15.73159487  2944
STARLINK-4111           
1 53159U 22083AD  22212.91667824 -.00088404  00000+0 -63006-3 0  9993
2 53159  53.2188 335.9219 0003042 305.5950 343.5803 15.73267612  1300
STARLINK-4096           
1 53160U 22083AE  22213.16667824  .00018477  00000+0  13583-3 0  9999
2 53160  53.2189 334.6870 0001552  43.3138 220.8154 15.73190861  2949
STARLINK-4055           
1 53161U 22083AF  22213.16667824  .00020531  00000+0  15054-3 0  9999
2 53161  53.2181 334.6770 0001512  36.7991 230.9221 15.73169605  2949
